QIANFAN-57              
1 62787U 25016C   26015.82066051  .00000122  00000+0  16975-3 0  9991
2 62787  88.9774  99.6856 0002473  94.8935 265.2498 13.50987925 51801
QIANFAN-58              
1 62788U 25016D   26015.79179323  .00000114  00000+0  15867-3 0  9995
2 62788  88.9744  99.5098 0012584 238.6984 121.2936 13.50989685 51849
QIANFAN-59              
1 62789U 25016E   26015.81648901  .00000123  00000+0  17172-3 0  9993
2 62789  88.9768  99.5890 0012851 242.9993 116.9847 13.50985958 51842
QIANFAN-60              
1 62790U 25016F   26015.84937218  .00000129  00000+0  18094-3 0  9990
2 62790  88.9748  99.5505 0014477 239.5563 120.4158 13.50995167 51833
QIANFAN-61              
1 62791U 25016G   26015.80824912  .00000123  00000+0  17198-3 0  9991
2 62791  88.9816  99.7409 0013427 238.7078 121.2758 13.50985371 51843
QIANFAN-62              
1 62792U 25016H   26015.81238495  .00000126  00000+0  17651-3 0  9995
2 62792  88.9763  99.5905 0014798 239.5819 120.3870 13.50988021 51837
QIANFAN-63              
1 62793U 25016J   26015.76298230  .00000110  00000+0  15231-3 0  9998
2 62793  88.9769  99.5494 0014726 245.5481 114.4135 13.50986171 51865
QIANFAN-64              
1 62794U 25016K   26015.80411862  .00000111  00000+0  15324-3 0  9996
2 62794  88.9756  99.5147 0012843 236.9415 123.0503 13.50984708 51865
